[{"OBJECT_NAME":"STARLINK-4590","OBJECT_ID":"2022-104U","EPOCH":"2026-03-09T16:35:23.694144","MEAN_MOTION":15.08834999,"ECCENTRICITY":0.00012377,"INCLINATION":53.2171,"RA_OF_ASC_NODE":234.2281,"ARG_OF_PERICENTER":91.6865,"MEAN_ANOMALY":268.4269,"EPHEMERIS_TYPE":0,"CLASSIFICATION_TYPE":"U","NORAD_CAT_ID":53606,"ELEMENT_SET_NO":999,"REV_AT_EPOCH":19563,"BSTAR":-5.199602e-6,"MEAN_MOTION_DOT":-3.71e-6,"MEAN_MOTION_DDOT":0},{"OBJECT_NAME":"OBJECT G","OBJECT_ID":"2025-292G","EPOCH":"2026-03-09T22:41:34.708704","MEAN_MOTION":15.05879657,"ECCENTRICITY":0.00150455,"INCLINATION":97.6425,"RA_OF_ASC_NODE":145.7524,"ARG_OF_PERICENTER":352.95,"MEAN_ANOMALY":7.1513,"EPHEMERIS_TYPE":0,"CLASSIFICATION_TYPE":"U","NORAD_CAT_ID":66999,"ELEMENT_SET_NO":999,"REV_AT_EPOCH":1351,"BSTAR":0.00047153864,"MEAN_MOTION_DOT":6.807e-5,"MEAN_MOTION_DDOT":0}]
